BEIJING 1               
1 28890U 05043A   22267.47426214  .00000198  00000+0  49268-4 0  9998
2 28890  98.1295  28.1187 0014304 220.8030 139.2103 14.61494734901605
HJ-1A                   
1 33320U 08041A   22267.54152480  .00000360  00000+0  56625-4 0  9998
2 33320  97.6721 295.9258 0019576 270.3320  89.5650 14.77918466757027
HJ-1B                   
1 33321U 08041B   22267.49268073  .00000760  00000+0  11161-3 0  9998
2 33321  97.6885 299.6433 0032930 289.4616  70.3042 14.77882616757012
YAOGAN 4                
1 33446U 08061A   22267.39413134  .00000521  00000+0  80003-4 0  9994
2 33446  97.8218 204.5386 0016335 168.9307 191.2267 14.77471758744203
DEIMOS-1                
1 35681U 09041A   22267.56777701  .00000290  00000+0  53438-4 0  9993
2 35681  97.7044 113.5113 0000098 337.4713  22.6492 14.72112929706350
UK-DMC 2                
1 35683U 09041C   22267.43185899  .00000488  00000+0  86065-4 0  9993
2 35683  97.7064  75.1966 0001208  61.9990 298.1347 14.71498343706066
RISAT 1                 
1 38248U 12017A   22267.52213744  .00003519  00000+0  20599-3 0  9998
2 38248  97.5531 277.8342 0002188 283.6960  76.4026 15.12484168573799
DMC3-FM1                
1 40715U 15032A   22267.50429182  .00000349  00000+0  50305-4 0  9990
2 40715  97.8317 152.3080 0005355 183.6772 176.4378 14.82196429387960
DMC3-FM2                
1 40716U 15032B   22267.45979460  .00000364  00000+0  52200-4 0  9997
2 40716  97.8359 152.9573 0007340 189.9310 170.1755 14.82189182387961
DMC3-FM3                
1 40717U 15032C   22267.48102817  .00000360  00000+0  51611-4 0  9996
2 40717  97.8394 153.9329 0009251 190.0992 170.0022 14.82216992387969
